{
    "links": {
        "self": "http://www.neowsapp.com/rest/v1/neo/3274491?api_key=iIulBulltgU6a56xZRHN4H3l9WmuAYTsLGpBGhQ2"
    },
    "id": "3274491",
    "neo_reference_id": "3274491",
    "name": "(2005 ED224)",
    "designation": "2005 ED224",
    "nasa_jpl_url": "http://ssd.jpl.nasa.gov/sbdb.cgi?sstr=3274491",
    "absolute_magnitude_h": 23.994,
    "estimated_diameter": {
        "kilometers": {
            "estimated_diameter_min": 0.0422430217,
            "estimated_diameter_max": 0.0944582682
        },
        "meters": {
            "estimated_diameter_min": 42.2430217295,
            "estimated_diameter_max": 94.4582681621
        },
        "miles": {
            "estimated_diameter_min": 0.0262485887,
            "estimated_diameter_max": 0.0586936285
        },
        "feet": {
            "estimated_diameter_min": 138.5925954109,
            "estimated_diameter_max": 309.902464517
        }
    },
    "is_potentially_hazardous_asteroid": false,
    "close_approach_data": [
        {
            "close_approach_date": "2005-03-09",
            "close_approach_date_full": "2005-Mar-09 17:05",
            "epoch_date_close_approach": 1110387900000,
            "relative_velocity": {
                "kilometers_per_second": "24.2884498176",
                "kilometers_per_hour": "87438.4193434367",
                "miles_per_hour": "54330.8333970371"
            },
            "miss_distance": {
                "astronomical": "0.0260291251",
                "lunar": "10.1253296639",
                "kilometers": "3893901.672923537",
                "miles": "2419558.3031453306"
            },
            "orbiting_body": "Earth"
        }
    ],
    "orbital_data": {
        "orbit_id": "7",
        "orbit_determination_date": "2017-04-06 09:11:15",
        "first_observation_date": "2005-03-13",
        "last_observation_date": "2005-03-16",
        "data_arc_in_days": 3,
        "observations_used": 11,
        "orbit_uncertainty": "9",
        "minimum_orbit_intersection": ".0013683",
        "jupiter_tisserand_invariant": "3.497",
        "epoch_osculation": "2453445.5",
        "eccentricity": ".6597809118032505",
        "semi_major_axis": "1.910324263991185",
        "inclination": "31.89592218562083",
        "ascending_node_longitude": "170.5264169732971",
        "orbital_period": "964.4041370840249",
        "perihelion_distance": ".6499287792552078",
        "perihelion_argument": "277.2801429799726",
        "aphelion_distance": "3.170719748727163",
        "perihelion_time": "2453392.310157625127",
        "mean_anomaly": "19.85510277138718",
        "mean_motion": ".373287490334184",
        "equinox": "J2000",
        "orbit_class": {
            "orbit_class_type": "APO",
            "orbit_class_description": "Near-Earth asteroid orbits which cross the Earth’s orbit similar to that of 1862 Apollo",
            "orbit_class_range": "a (semi-major axis) > 1.0 AU; q (perihelion) < 1.017 AU"
        }
    },
    "is_sentry_object": false
}